{
  "type": "FeatureCollection",
  "features": [
    {
      "type": "Feature",
      "properties": {
        "norad_id": 36828,
        "name": "BEIDOU-2 IGSO-1 (C06)",
        "group": "beidou",
        "lat": 10.025688713811835,
        "lon": -22.800577777479674,
        "alt_km": 35640.06583113773,
        "timestamp": "2025-12-26T08:37:54.845406+00:00",
        "meta_object_name": "BEIDOU-2 IGSO-1 (C06)",
        "meta_object_id": "2010-036A",
        "meta_epoch": "2025-12-25T21:06:51.904224",
        "meta_mean_motion": 1.00272533,
        "meta_eccentricity": 0.00515074,
        "meta_inclination": 54.2892,
        "meta_ra_of_asc_node": 164.5291,
        "meta_arg_of_pericenter": 215.7944,
        "meta_mean_anomaly": 138.9488,
        "meta_ephemeris_type": 0,
        "meta_classification_type": "U",
        "meta_norad_cat_id": 36828,
        "meta_element_set_no": 999,
        "meta_rev_at_epoch": 5635,
        "meta_bstar": 0,
        "meta_mean_motion_dot": -5.2e-07,
        "meta_mean_motion_ddot": 0,
        "tle_line1": "1 36828U 10036A   25359.87976741 -.00000052  00000+0  00000+0 0  9996",
        "tle_line2": "2 36828  54.2892 164.5291 0051507 215.7944 138.9488  1.00272533 56350"
      },
      "geometry": {
        "type": "Point",
        "coordinates": [
          -22.800577777479674,
          10.025688713811835
        ]
      }
    },
    {
      "type": "Feature",
      "properties": {
        "norad_id": 37210,
        "name": "BEIDOU-2 G4 (C04)",
        "group": "beidou",
        "lat": -2.276280187631609,
        "lon": 24.810105104303915,
        "alt_km": 35809.05839638784,
        "timestamp": "2025-12-26T08:37:54.845429+00:00",
        "meta_object_name": "BEIDOU-2 G4 (C04)",
        "meta_object_id": "2010-057A",
        "meta_epoch": "2025-12-26T05:23:59.678592",
        "meta_mean_motion": 1.00271369,
        "meta_eccentricity": 0.001045,
        "meta_inclination": 3.2158,
        "meta_ra_of_asc_node": 69.8869,
        "meta_arg_of_pericenter": 194.0651,
        "meta_mean_anomaly": 72.1025,
        "meta_ephemeris_type": 0,
        "meta_classification_type": "U",
        "meta_norad_cat_id": 37210,
        "meta_element_set_no": 999,
        "meta_rev_at_epoch": 5555,
        "meta_bstar": 0,
        "meta_mean_motion_dot": -9.1e-07,
        "meta_mean_motion_ddot": 0,
        "tle_line1": "1 37210U 10057A   25360.22499628 -.00000091  00000+0  00000+0 0  9993",
        "tle_line2": "2 37210   3.2158  69.8869 0010450 194.0651  72.1025  1.00271369 55552"
      },
      "geometry": {
        "type": "Point",
        "coordinates": [
          24.810105104303915,
          -2.276280187631609
        ]
      }
    },
    {
      "type": "Feature",
      "properties": {
        "norad_id": 37256,
        "name": "BEIDOU-2 IGSO-2 (C07)",
        "group": "beidou",
        "lat": 39.20730860574308,
        "lon": -38.51632209373305,
        "alt_km": 35966.96049477238,
        "timestamp": "2025-12-26T08:37:54.845443+00:00",
        "meta_object_name": "BEIDOU-2 IGSO-2 (C07)",
        "meta_object_id": "2010-068A",
        "meta_epoch": "2025-12-26T05:49:55.295904",
        "meta_mean_motion": 1.00282085,
        "meta_eccentricity": 0.0048328,
        "meta_inclination": 47.8612,
        "meta_ra_of_asc_node": 273.9839,
        "meta_arg_of_pericenter": 216.056,
        "meta_mean_anomaly": 160.5314,
        "meta_ephemeris_type": 0,
        "meta_classification_type": "U",
        "meta_norad_cat_id": 37256,
        "meta_element_set_no": 999,
        "meta_rev_at_epoch": 5506,
        "meta_bstar": 0,
        "meta_mean_motion_dot": -2e-06,
        "meta_mean_motion_ddot": 0,
        "tle_line1": "1 37256U 10068A   25360.24300111 -.00000200  00000+0  00000+0 0  9997",
        "tle_line2": "2 37256  47.8612 273.9839 0048328 216.0560 160.5314  1.00282085 55061"
      },
      "geometry": {
        "type": "Point",
        "coordinates": [
          -38.51632209373305,
          39.20730860574308
        ]
      }
    },
    {
      "type": "Feature",
      "properties": {
        "norad_id": 37384,
        "name": "BEIDOU-2 IGSO-3 (C08)",
        "group": "beidou",
        "lat": -56.01907490125308,
        "lon": -9.783073782269602,
        "alt_km": 35824.93172066632,
        "timestamp": "2025-12-26T08:37:54.845456+00:00",
        "meta_object_name": "BEIDOU-2 IGSO-3 (C08)",
        "meta_object_id": "2011-013A",
        "meta_epoch": "2025-12-24T13:36:08.179776",
        "meta_mean_motion": 1.00268125,
        "meta_eccentricity": 0.00352821,
        "meta_inclination": 62.1584,
        "meta_ra_of_asc_node": 41.8043,
        "meta_arg_of_pericenter": 187.8377,
        "meta_mean_anomaly": 174.9924,
        "meta_ephemeris_type": 0,
        "meta_classification_type": "U",
        "meta_norad_cat_id": 37384,
        "meta_element_set_no": 999,
        "meta_rev_at_epoch": 5391,
        "meta_bstar": 0,
        "meta_mean_motion_dot": -1.63e-06,
        "meta_mean_motion_ddot": 0,
        "tle_line1": "1 37384U 11013A   25358.56676134 -.00000163  00000+0  00000+0 0  9991",
        "tle_line2": "2 37384  62.1584  41.8043 0035282 187.8377 174.9924  1.00268125 53913"
      },
      "geometry": {
        "type": "Point",
        "coordinates": [
          -9.783073782269602,
          -56.01907490125308
        ]
      }
    },
    {
      "type": "Feature",
      "properties": {
        "norad_id": 37763,
        "name": "BEIDOU-2 IGSO-4 (C09)",
        "group": "beidou",
        "lat": 23.657251130018594,
        "lon": -30.964659247011323,
        "alt_km": 35659.67401230182,
        "timestamp": "2025-12-26T08:37:54.845469+00:00",
        "meta_object_name": "BEIDOU-2 IGSO-4 (C09)",
        "meta_object_id": "2011-038A",
        "meta_epoch": "2025-12-21T10:06:26.864064",
        "meta_mean_motion": 1.00280083,
        "meta_eccentricity": 0.01491557,
        "meta_inclination": 54.5854,
        "meta_ra_of_asc_node": 167.2693,
        "meta_arg_of_pericenter": 230.0944,
        "meta_mean_anomaly": 299.1265,
        "meta_ephemeris_type": 0,
        "meta_classification_type": "U",
        "meta_norad_cat_id": 37763,
        "meta_element_set_no": 999,
        "meta_rev_at_epoch": 5286,
        "meta_bstar": 0,
        "meta_mean_motion_dot": 5.9e-07,
        "meta_mean_motion_ddot": 0,
        "tle_line1": "1 37763U 11038A   25355.42114426  .00000059  00000+0  00000+0 0  9995",
        "tle_line2": "2 37763  54.5854 167.2693 0149155 230.0944 299.1265  1.00280083 52867"
      },
      "geometry": {
        "type": "Point",
        "coordinates": [
          -30.964659247011323,
          23.657251130018594
        ]
      }
    },
    {
      "type": "Feature",
      "properties": {
        "norad_id": 37948,
        "name": "BEIDOU-2 IGSO-5 (C10)",
        "group": "beidou",
        "lat": 31.408241975441978,
        "lon": -52.991800879460335,
        "alt_km": 36239.80956786277,
        "timestamp": "2025-12-26T08:37:54.845482+00:00",
        "meta_object_name": "BEIDOU-2 IGSO-5 (C10)",
        "meta_object_id": "2011-073A",
        "meta_epoch": "2025-12-25T17:46:48.300384",
        "meta_mean_motion": 1.00288091,
        "meta_eccentricity": 0.01096686,
        "meta_inclination": 47.9959,
        "meta_ra_of_asc_node": 273.6993,
        "meta_arg_of_pericenter": 222.1113,
        "meta_mean_anomaly": 319.0848,
        "meta_ephemeris_type": 0,
        "meta_classification_type": "U",
        "meta_norad_cat_id": 37948,
        "meta_element_set_no": 999,
        "meta_rev_at_epoch": 5139,
        "meta_bstar": 0,
        "meta_mean_motion_dot": -1.42e-06,
        "meta_mean_motion_ddot": 0,
        "tle_line1": "1 37948U 11073A   25359.74083681 -.00000142  00000+0  00000+0 0  9990",
        "tle_line2": "2 37948  47.9959 273.6993 0109668 222.1113 319.0848  1.00288091 51397"
      },
      "geometry": {
        "type": "Point",
        "coordinates": [
          -52.991800879460335,
          31.408241975441978
        ]
      }
    },
    {
      "type": "Feature",
      "properties": {
        "norad_id": 38091,
        "name": "BEIDOU-2 G5 (C05)",
        "group": "beidou",
        "lat": -1.7099184783294505,
        "lon": -76.78341206394381,
        "alt_km": 35734.40974169613,
        "timestamp": "2025-12-26T08:37:54.845494+00:00",
        "meta_object_name": "BEIDOU-2 G5 (C05)",
        "meta_object_id": "2012-008A",
        "meta_epoch": "2025-12-25T21:54:09.656928",
        "meta_mean_motion": 1.00270052,
        "meta_eccentricity": 0.001313,
        "meta_inclination": 3.1399,
        "meta_ra_of_asc_node": 70.6602,
        "meta_arg_of_pericenter": 232.1831,
        "meta_mean_anomaly": 179.0905,
        "meta_ephemeris_type": 0,
        "meta_classification_type": "U",
        "meta_norad_cat_id": 38091,
        "meta_element_set_no": 999,
        "meta_rev_at_epoch": 5063,
        "meta_bstar": 0,
        "meta_mean_motion_dot": 7.8e-07,
        "meta_mean_motion_ddot": 0,
        "tle_line1": "1 38091U 12008A   25359.91261177  .00000078  00000+0  00000+0 0  9993",
        "tle_line2": "2 38091   3.1399  70.6602 0013130 232.1831 179.0905  1.00270052 50639"
      },
      "geometry": {
        "type": "Point",
        "coordinates": [
          -76.78341206394381,
          -1.7099184783294505
        ]
      }
    }
  ]
}